start=new Date('2023-01-23T00:00:00.000Z').valueOf();
sats=[{"EPHEMERIS_TYPE":"0","APOAPSIS":"540.825","MEAN_MOTION_DOT":"0.00001870","SITE":"AFWTR","OBJECT_TYPE":"PAYLOAD","TIME_SYSTEM":"UTC","DECAY_DATE":null,"OBJECT_NAME":"STARLINK-3959","TLE_LINE1":"1 52564U 22051AH  23021.65439513  .00001870  00000-0  13554-3 0  9993","RCS_SIZE":"LARGE","COUNTRY_CODE":"US","PERIOD":"95.438","RA_OF_ASC_NODE":"225.4067","PERIAPSIS":"538.678","REV_AT_EPOCH":"3888","OBJECT_ID":"2022-051AH","REF_FRAME":"TEME","BSTAR":"0.00013554000000","ARG_OF_PERICENTER":"80.0568","LAUNCH_DATE":"2022-05-13","CLASSIFICATION_TYPE":"U","NORAD_CAT_ID":"52564","CENTER_NAME":"EARTH","MEAN_MOTION_DDOT":"0.0000000000000","INCLINATION":"53.2135","TLE_LINE2":"2 52564  53.2135 225.4067 0001552  80.0568 280.0599 15.08838084 38884","EPOCH":"2023-01-21T15:42:19.739232","SEMIMAJOR_AXIS":"6917.886","MEAN_ELEMENT_THEORY":"SGP4","FILE":"3757306","ELEMENT_SET_NO":"999","MEAN_ANOMALY":"280.0599","MEAN_MOTION":"15.08838084","GP_ID":"223580901","ECCENTRICITY":"0.00015520"},{"FILE":"3757557","ELEMENT_SET_NO":"999","MEAN_ANOMALY":"273.9045","GP_ID":"223587017","ECCENTRICITY":"0.00012980","MEAN_MOTION":"15.08840200","REF_FRAME":"TEME","BSTAR":"0.00007654900000","ARG_OF_PERICENTER":"86.2095","LAUNCH_DATE":"2022-05-13","CLASSIFICATION_TYPE":"U","NORAD_CAT_ID":"52565","CENTER_NAME":"EARTH","MEAN_MOTION_DDOT":"0.0000000000000","INCLINATION":"53.2156","SEMIMAJOR_AXIS":"6917.880","TLE_LINE2":"2 52565  53.2156 207.9475 0001298  86.2095 273.9045 15.08840200 39179","EPOCH":"2023-01-22T04:51:14.435424","MEAN_ELEMENT_THEORY":"SGP4","RCS_SIZE":"LARGE","COUNTRY_CODE":"US","PERIOD":"95.438","RA_OF_ASC_NODE":"207.9475","PERIAPSIS":"538.847","REV_AT_EPOCH":"3917","OBJECT_ID":"2022-051AJ","EPHEMERIS_TYPE":"0","APOAPSIS":"540.643","SITE":"AFWTR","MEAN_MOTION_DOT":"0.00000931","TIME_SYSTEM":"UTC","OBJECT_TYPE":"PAYLOAD","DECAY_DATE":null,"OBJECT_NAME":"STARLINK-3911","TLE_LINE1":"1 52565U 22051AJ  23022.20225041  .00000931  00000-0  76549-4 0  9996"},{"OBJECT_ID":"2022-051AK","REV_AT_EPOCH":"3902","PERIAPSIS":"538.659","PERIOD":"95.438","RA_OF_ASC_NODE":"221.3555","COUNTRY_CODE":"US","RCS_SIZE":"MEDIUM","TLE_LINE1":"1 52566U 22051AK  23022.55967692  .00001402  00000-0  10616-3 0  9996","OBJECT_NAME":"STARLINK-3938","DECAY_DATE":null,"OBJECT_TYPE":"PAYLOAD","TIME_SYSTEM":"UTC","MEAN_MOTION_DOT":"0.00001402","SITE":"AFWTR","EPHEMERIS_TYPE":"0","APOAPSIS":"540.868","ECCENTRICITY":"0.00015970","GP_ID":"223594597","MEAN_MOTION":"15.08834114","MEAN_ANOMALY":"287.9195","ELEMENT_SET_NO":"999","FILE":"3757922","TLE_LINE2":"2 52566  53.2126 221.3555 0001597  72.1971 287.9195 15.08834114 39027","MEAN_ELEMENT_THEORY":"SGP4","SEMIMAJOR_AXIS":"6917.898","EPOCH":"2023-01-22T13:25:56.085888","INCLINATION":"53.2126","MEAN_MOTION_DDOT":"0.0000000000000","CENTER_NAME":"EARTH","CLASSIFICATION_TYPE":"U","NORAD_CAT_ID":"52566","LAUNCH_DATE":"2022-05-13","ARG_OF_PERICENTER":"72.1971","BSTAR":"0.00010616000000","REF_FRAME":"TEME"},{"DECAY_DATE":null,"TIME_SYSTEM":"UTC","OBJECT_TYPE":"PAYLOAD","SITE":"AFWTR","MEAN_MOTION_DOT":"0.00001521","APOAPSIS":"540.585","EPHEMERIS_TYPE":"0","TLE_LINE1":"1 52567U 22051AL  23022.52609036  .00001521  00000-0  11360-3 0  9998","OBJECT_NAME":"STARLINK-3929","RCS_SIZE":"LARGE","OBJECT_ID":"2022-051AL","REV_AT_EPOCH":"3922","PERIAPSIS":"538.876","PERIOD":"95.437","RA_OF_ASC_NODE":"206.4857","COUNTRY_CODE":"US","NORAD_CAT_ID":"52567","CLASSIFICATION_TYPE":"U","LAUNCH_DATE":"2022-05-13","ARG_OF_PERICENTER":"91.1055","BSTAR":"0.00011360000000","REF_FRAME":"TEME","EPOCH":"2023-01-22T12:37:34.207104","TLE_LINE2":"2 52567  53.2160 206.4857 0001235  91.1055 269.0079 15.08844873 39225","SEMIMAJOR_AXIS":"6917.865","MEAN_ELEMENT_THEORY":"SGP4","INCLINATION":"53.2160","MEAN_MOTION_DDOT":"0.0000000000000","CENTER_NAME":"EARTH","FILE":"3757922","ECCENTRICITY":"0.00012350","GP_ID":"223594600","MEAN_MOTION":"15.08844873","MEAN_ANOMALY":"269.0079","ELEMENT_SET_NO":"999"},{"SEMIMAJOR_AXIS":"6917.825","TLE_LINE2":"2 52568  53.2145 205.3570 0001244  89.9401 270.1734 15.08858160 39268","EPOCH":"2023-01-22T18:43:13.222560","MEAN_ELEMENT_THEORY":"SGP4","INCLINATION":"53.2145","MEAN_MOTION_DDOT":"0.0000000000000","CENTER_NAME":"EARTH","NORAD_CAT_ID":"52568","CLASSIFICATION_TYPE":"U","LAUNCH_DATE":"2022-05-13","BSTAR":"0.00001864100000","ARG_OF_PERICENTER":"89.9401","REF_FRAME":"TEME","ECCENTRICITY":"0.00012440","GP_ID":"223600839","MEAN_MOTION":"15.08858160","MEAN_ANOMALY":"270.1734","ELEMENT_SET_NO":"999","FILE":"3758202","TLE_LINE1":"1 52568U 22051AM  23022.78001415  .00000009  00000-0  18641-4 0  9994","OBJECT_NAME":"STARLINK-3930","DECAY_DATE":null,"TIME_SYSTEM":"UTC","OBJECT_TYPE":"PAYLOAD","SITE":"AFWTR","MEAN_MOTION_DOT":"0.00000009","EPHEMERIS_TYPE":"0","APOAPSIS":"540.550","OBJECT_ID":"2022-051AM","REV_AT_EPOCH":"3926","PERIAPSIS":"538.829","RA_OF_ASC_NODE":"205.3570","PERIOD":"95.436","COUNTRY_CODE":"US","RCS_SIZE":"LARGE"},{"FILE":"3758208","ELEMENT_SET_NO":"999","MEAN_ANOMALY":"268.5914","GP_ID":"223600844","ECCENTRICITY":"0.00018150","MEAN_MOTION":"15.08841081","REF_FRAME":"TEME","BSTAR":"0.00005155700000","ARG_OF_PERICENTER":"91.5286","LAUNCH_DATE":"2022-05-13","NORAD_CAT_ID":"52569","CLASSIFICATION_TYPE":"U","CENTER_NAME":"EARTH","MEAN_MOTION_DDOT":"0.0000000000000","INCLINATION":"53.2144","TLE_LINE2":"2 52569  53.2144 205.3225 0001815  91.5286 268.5914 15.08841081 39264","EPOCH":"2023-01-22T18:53:49.020288","SEMIMAJOR_AXIS":"6917.877","MEAN_ELEMENT_THEORY":"SGP4","RCS_SIZE":"LARGE","COUNTRY_CODE":"US","PERIOD":"95.437","RA_OF_ASC_NODE":"205.3225","PERIAPSIS":"538.486","REV_AT_EPOCH":"3926","OBJECT_ID":"2022-051AN","APOAPSIS":"540.998","EPHEMERIS_TYPE":"0","SITE":"AFWTR","MEAN_MOTION_DOT":"0.00000533","TIME_SYSTEM":"UTC","OBJECT_TYPE":"PAYLOAD","DECAY_DATE":null,"OBJECT_NAME":"STARLINK-3927","TLE_LINE1":"1 52569U 22051AN  23022.78737292  .00000533  00000-0  51557-4 0  9999"},{"FILE":"3757923","GP_ID":"223594614","ECCENTRICITY":"0.00012600","MEAN_MOTION":"15.08841851","MEAN_ANOMALY":"277.4791","ELEMENT_SET_NO":"999","CLASSIFICATION_TYPE":"U","NORAD_CAT_ID":"52570","LAUNCH_DATE":"2022-05-13","BSTAR":"0.00000705830000","ARG_OF_PERICENTER":"82.6344","REF_FRAME":"TEME","SEMIMAJOR_AXIS":"6917.875","TLE_LINE2":"2 52570  53.2178 206.5499 0001260  82.6344 277.4791 15.08841851 39222","EPOCH":"2023-01-22T12:16:22.299744","MEAN_ELEMENT_THEORY":"SGP4","INCLINATION":"53.2178","MEAN_MOTION_DDOT":"0.0000000000000","CENTER_NAME":"EARTH","RCS_SIZE":"LARGE","OBJECT_ID":"2022-051AP","REV_AT_EPOCH":"3922","PERIAPSIS":"538.868","PERIOD":"95.437","RA_OF_ASC_NODE":"206.5499","COUNTRY_CODE":"US","DECAY_DATE":null,"TIME_SYSTEM":"UTC","OBJECT_TYPE":"PAYLOAD","MEAN_MOTION_DOT":"-0.00000176","SITE":"AFWTR","APOAPSIS":"540.611","EPHEMERIS_TYPE":"0","TLE_LINE1":"1 52570U 22051AP  23022.51136921 -.00000176  00000-0  70583-5 0  9999","OBJECT_NAME":"STARLINK-3924"},{"DECAY_DATE":null,"OBJECT_TYPE":"PAYLOAD","TIME_SYSTEM":"UTC","MEAN_MOTION_DOT":"0.00000735","SITE":"AFWTR","EPHEMERIS_TYPE":"0","APOAPSIS":"540.589","TLE_LINE1":"1 52574U 22051AQ  23022.78368924  .00000735  00000-0  64268-4 0  9994","OBJECT_NAME":"STARLINK-3901","RCS_SIZE":"LARGE","OBJECT_ID":"2022-051AQ","REV_AT_EPOCH":"3926","PERIAPSIS":"538.886","PERIOD":"95.437","RA_OF_ASC_NODE":"205.3356","COUNTRY_CODE":"US","CLASSIFICATION_TYPE":"U","NORAD_CAT_ID":"52574","LAUNCH_DATE":"2022-05-13","BSTAR":"0.00006426800000","ARG_OF_PERICENTER":"85.3475","REF_FRAME":"TEME","TLE_LINE2":"2 52574  53.2147 205.3356 0001231  85.3475 274.7658 15.08842610 39264","SEMIMAJOR_AXIS":"6917.872","MEAN_ELEMENT_THEORY":"SGP4","EPOCH":"2023-01-22T18:48:30.750336","INCLINATION":"53.2147","MEAN_MOTION_DDOT":"0.0000000000000","CENTER_NAME":"EARTH","FILE":"3758202","GP_ID":"223600328","ECCENTRICITY":"0.00012310","MEAN_MOTION":"15.08842610","MEAN_ANOMALY":"274.7658","ELEMENT_SET_NO":"999"},{"TLE_LINE1":"1 52575U 22051AR  23022.24273722  .00001438  00000-0  10845-3 0  9999","OBJECT_NAME":"STARLINK-3920","MEAN_MOTION_DOT":"0.00001438","SITE":"AFWTR","APOAPSIS":"541.083","EPHEMERIS_TYPE":"0","DECAY_DATE":null,"TIME_SYSTEM":"UTC","OBJECT_TYPE":"PAYLOAD","PERIOD":"95.438","RA_OF_ASC_NODE":"207.7633","COUNTRY_CODE":"US","OBJECT_ID":"2022-051AR","REV_AT_EPOCH":"3918","PERIAPSIS":"538.410","RCS_SIZE":"LARGE","MEAN_MOTION_DDOT":"0.0000000000000","CENTER_NAME":"EARTH","MEAN_ELEMENT_THEORY":"SGP4","TLE_LINE2":"2 52575  53.2164 207.7633 0001932  68.1825 291.9372 15.08839656 39185","SEMIMAJOR_AXIS":"6917.881","EPOCH":"2023-01-22T05:49:32.495808","INCLINATION":"53.2164","LAUNCH_DATE":"2022-05-13","BSTAR":"0.00010845000000","ARG_OF_PERICENTER":"68.1825","REF_FRAME":"TEME","CLASSIFICATION_TYPE":"U","NORAD_CAT_ID":"52575","ECCENTRICITY":"0.00019320","GP_ID":"223587026","MEAN_MOTION":"15.08839656","MEAN_ANOMALY":"291.9372","ELEMENT_SET_NO":"999","FILE":"3757558"},{"EPOCH":"2023-01-22T12:01:51.392064","TLE_LINE2":"2 52576  53.2166 206.6003 0001718  77.6846 282.4338 15.08840745 39220","SEMIMAJOR_AXIS":"6917.878","MEAN_ELEMENT_THEORY":"SGP4","INCLINATION":"53.2166","CENTER_NAME":"EARTH","MEAN_MOTION_DDOT":"0.0000000000000","CLASSIFICATION_TYPE":"U","NORAD_CAT_ID":"52576","REF_FRAME":"TEME","LAUNCH_DATE":"2022-05-13","BSTAR":"0.00008584700000","ARG_OF_PERICENTER":"77.6846","ELEMENT_SET_NO":"999","GP_ID":"223594609","ECCENTRICITY":"0.00017180","MEAN_MOTION":"15.08840745","MEAN_ANOMALY":"282.4338","FILE":"3757923","TLE_LINE1":"1 52576U 22051AS  23022.50128926  .00001078  00000-0  85847-4 0  9999","OBJECT_NAME":"STARLINK-3932","TIME_SYSTEM":"UTC","OBJECT_TYPE":"PAYLOAD","DECAY_DATE":null,"SITE":"AFWTR","MEAN_MOTION_DOT":"0.00001078","EPHEMERIS_TYPE":"0","APOAPSIS":"540.932","PERIAPSIS":"538.555","OBJECT_ID":"2022-051AS","REV_AT_EPOCH":"3922","COUNTRY_CODE":"US","PERIOD":"95.438","RA_OF_ASC_NODE":"206.6003","RCS_SIZE":"LARGE"}];
